OBJECT_NAME,OBJECT_ID,EPOCH,MEAN_MOTION,ECCENTRICITY,INCLINATION,RA_OF_ASC_NODE,ARG_OF_PERICENTER,MEAN_ANOMALY,EPHEMERIS_TYPE,CLASSIFICATION_TYPE,NORAD_CAT_ID,ELEMENT_SET_NO,REV_AT_EPOCH,BSTAR,MEAN_MOTION_DOT,MEAN_MOTION_DDOT
TEVEL2-5,2025-052E,2026-06-30T05:50:33.814752,15.34882414,.00047019,97.3890,77.6036,80.7172,279.4603,0,U,63214,999,7211,.49541717E-3,.16701E-3,0
TEVEL2-6,2025-052F,2026-06-30T23:21:25.873632,15.34878208,.00044841,97.3895,78.3191,80.3249,279.8501,0,U,63215,999,7222,.65160601E-3,.22002E-3,0
TEVEL2-1,2025-052H,2026-06-29T23:07:36.552864,15.34288206,.00049749,97.3866,76.9168,89.0963,271.0850,0,U,63217,999,7205,.5556305E-3,.18395E-3,0
TEVEL2-3,2025-052J,2026-06-29T22:59:12.512544,15.34347673,.00048285,97.3871,76.9346,90.2105,269.9691,0,U,63218,999,7205,.55721892E-3,.18482E-3,0
TEVEL2-2,2025-052K,2026-06-28T15:49:37.369056,15.34253315,.00050154,97.3871,75.6148,92.1173,268.0645,0,U,63219,999,7185,.51245467E-3,.16937E-3,0
TEVEL2-9,2025-052AD,2026-06-30T05:15:32.433696,15.32290550,.00083087,97.3929,76.5220,96.6090,263.6098,0,U,63237,999,7202,.47181125E-3,.14659E-3,0
TEVEL2-7,2025-052AE,2026-06-30T15:42:26.875008,15.31999023,.0008383,97.3931,76.8668,95.4653,264.7545,0,U,63238,999,7208,.53276678E-3,.16416E-3,0
TEVEL2-8,2025-052AF,2026-06-30T23:44:48.020352,15.31998432,.00084385,97.3930,77.1776,95.2940,264.9265,0,U,63239,999,7213,.64442723E-3,.19882E-3,0
FORESAIL-1 PRIME,2025-276DS,2026-06-30T10:29:33.076032,15.18816213,.00037806,97.4202,254.4659,75.9591,284.2063,0,U,66778,999,3241,.2115921E-3,.4337E-4,0
